{"fetched_at":"2026-07-23T17:55:34.243Z","source":"https://celestrak.org/NORAD/elements/gp.php?NAME=HULIANWANG&FORMAT=JSON","constellation":"guowang","records":[{"OBJECT_NAME":"HULIANWANG DIGUI-12","OBJECT_ID":"2025-030B","EPOCH":"2026-07-23T06:06:46.877472","CLASSIFICATION_TYPE":"U","MEAN_MOTION":13.29322675,"ECCENTRICITY":0.0000844,"INCLINATION":50.0023,"RA_OF_ASC_NODE":106.5925,"ARG_OF_PERICENTER":297.5806,"MEAN_ANOMALY":62.4981,"EPHEMERIS_TYPE":0,"NORAD_CAT_ID":62972,"ELEMENT_SET_NO":999,"REV_AT_EPOCH":7065,"BSTAR":0.00006056305,"MEAN_MOTION_DOT":-9.6e-7,"MEAN_MOTION_DDOT":0},{"OBJECT_NAME":"HULIANWANG DIGUI-13","OBJECT_ID":"2025-030C","EPOCH":"2026-07-23T05:42:34.500384","CLASSIFICATION_TYPE":"U","MEAN_MOTION":13.29324807,"ECCENTRICITY":0.00006623,"INCLINATION":50.0026,"RA_OF_ASC_NODE":106.5207,"ARG_OF_PERICENTER":300.0286,"MEAN_ANOMALY":60.052,"EPHEMERIS_TYPE":0,"NORAD_CAT_ID":62973,"ELEMENT_SET_NO":999,"REV_AT_EPOCH":7065,"BSTAR":0.000064804995,"MEAN_MOTION_DOT":-9.4e-7,"MEAN_MOTION_DDOT":0},{"OBJECT_NAME":"HULIANWANG DIGUI-14","OBJECT_ID":"2025-030D","EPOCH":"2026-07-23T05:06:33.226848","CLASSIFICATION_TYPE":"U","MEAN_MOTION":13.29327847,"ECCENTRICITY":0.00006652,"INCLINATION":50.0031,"RA_OF_ASC_NODE":106.4137,"ARG_OF_PERICENTER":303.1272,"MEAN_ANOMALY":56.9536,"EPHEMERIS_TYPE":0,"NORAD_CAT_ID":62974,"ELEMENT_SET_NO":999,"REV_AT_EPOCH":7065,"BSTAR":0.000036754078,"MEAN_MOTION_DOT":-0.00000107,"MEAN_MOTION_DDOT":0},{"OBJECT_NAME":"HULIANWANG DIGUI-15","OBJECT_ID":"2025-030E","EPOCH":"2026-07-23T05:30:34.980192","CLASSIFICATION_TYPE":"U","MEAN_MOTION":13.29324877,"ECCENTRICITY":0.00007561,"INCLINATION":50.0027,"RA_OF_ASC_NODE":106.4803,"ARG_OF_PERICENTER":302.426,"MEAN_ANOMALY":57.6539,"EPHEMERIS_TYPE":0,"NORAD_CAT_ID":62975,"ELEMENT_SET_NO":999,"REV_AT_EPOCH":7065,"BSTAR":0.000074463779,"MEAN_MOTION_DOT":-8.9e-7,"MEAN_MOTION_DDOT":0},{"OBJECT_NAME":"HULIANWANG DIGUI-16","OBJECT_ID":"2025-030F","EPOCH":"2026-07-23T04:54:39.220704","CLASSIFICATION_TYPE":"U","MEAN_MOTION":13.29325998,"ECCENTRICITY":0.00006262,"INCLINATION":50.0049,"RA_OF_ASC_NODE":106.4415,"ARG_OF_PERICENTER":301.4297,"MEAN_ANOMALY":58.6514,"EPHEMERIS_TYPE":0,"NORAD_CAT_ID":62976,"ELEMENT_SET_NO":999,"REV_AT_EPOCH":7065,"BSTAR":0.000059823932,"MEAN_MOTION_DOT":-9.6e-7,"MEAN_MOTION_DDOT":0},{"OBJECT_NAME":"HULIANWANG DIGUI-17","OBJECT_ID":"2025-030G","EPOCH":"2026-07-23T04:42:28.888416","CLASSIFICATION_TYPE":"U","MEAN_MOTION":13.29326065,"ECCENTRICITY":0.000075,"INCLINATION":50.0061,"RA_OF_ASC_NODE":106.4499,"ARG_OF_PERICENTER":292.4214,"MEAN_ANOMALY":67.6579,"EPHEMERIS_TYPE":0,"NORAD_CAT_ID":62977,"ELEMENT_SET_NO":999,"REV_AT_EPOCH":7065,"BSTAR":0.000047723526,"MEAN_MOTION_DOT":-0.00000102,"MEAN_MOTION_DDOT":0},{"OBJECT_NAME":"HULIANWANG DIGUI-18","OBJECT_ID":"2025-030H","EPOCH":"2026-07-23T06:18:40.139712","CLASSIFICATION_TYPE":"U","MEAN_MOTION":13.29327927,"ECCENTRICITY":0.0000786,"INCLINATION":50.0066,"RA_OF_ASC_NODE":106.1516,"ARG_OF_PERICENTER":291.6108,"MEAN_ANOMALY":68.468,"EPHEMERIS_TYPE":0,"NORAD_CAT_ID":62978,"ELEMENT_SET_NO":999,"REV_AT_EPOCH":7066,"BSTAR":0.000023280576,"MEAN_MOTION_DOT":-0.00000113,"MEAN_MOTION_DDOT":0},{"OBJECT_NAME":"HULIANWANG DIGUI-19","OBJECT_ID":"2025-030J","EPOCH":"2026-07-23T05:18:46.933056","CLASSIFICATION_TYPE":"U","MEAN_MOTION":13.29319451,"ECCENTRICITY":0.0000663,"INCLINATION":50.0051,"RA_OF_ASC_NODE":106.5364,"ARG_OF_PERICENTER":290.0157,"MEAN_ANOMALY":70.0644,"EPHEMERIS_TYPE":0,"NORAD_CAT_ID":62979,"ELEMENT_SET_NO":999,"REV_AT_EPOCH":7065,"BSTAR":0.000059879426,"MEAN_MOTION_DOT":-9.6e-7,"MEAN_MOTION_DDOT":0},{"OBJECT_NAME":"HULIANWANG DIGUI-20","OBJECT_ID":"2025-086A","EPOCH":"2026-07-23T06:54:36.959328","CLASSIFICATION_TYPE":"U","MEAN_MOTION":13.2441195,"ECCENTRICITY":0.00021923,"INCLINATION":86.5064,"RA_OF_ASC_NODE":300.9752,"ARG_OF_PERICENTER":109.9401,"MEAN_ANOMALY":250.197,"EPHEMERIS_TYPE":0,"NORAD_CAT_ID":63687,"ELEMENT_SET_NO":999,"REV_AT_EPOCH":5965,"BSTAR":0.00010378786,"MEAN_MOTION_DOT":5.9e-7,"MEAN_MOTION_DDOT":0},{"OBJECT_NAME":"HULIANWANG DIGUI-21","OBJECT_ID":"2025-086B","EPOCH":"2026-07-23T07:05:32.884800","CLASSIFICATION_TYPE":"U","MEAN_MOTION":13.2441061,"ECCENTRICITY":0.00021561,"INCLINATION":86.5092,"RA_OF_ASC_NODE":301.0401,"ARG_OF_PERICENTER":113.2742,"MEAN_ANOMALY":246.8619,"EPHEMERIS_TYPE":0,"NORAD_CAT_ID":63688,"ELEMENT_SET_NO":999,"REV_AT_EPOCH":5964,"BSTAR":0.00010190054,"MEAN_MOTION_DOT":5.8e-7,"MEAN_MOTION_DDOT":0},{"OBJECT_NAME":"HULIANWANG DIGUI-22","OBJECT_ID":"2025-086C","EPOCH":"2026-07-23T05:27:35.148096","CLASSIFICATION_TYPE":"U","MEAN_MOTION":13.24410922,"ECCENTRICITY":0.0002227,"INCLINATION":86.5058,"RA_OF_ASC_NODE":300.9189,"ARG_OF_PERICENTER":109.0916,"MEAN_ANOMALY":251.046,"EPHEMERIS_TYPE":0,"NORAD_CAT_ID":63689,"ELEMENT_SET_NO":999,"REV_AT_EPOCH":5963,"BSTAR":0.000072233556,"MEAN_MOTION_DOT":4.6e-7,"MEAN_MOTION_DDOT":0},{"OBJECT_NAME":"HULIANWANG DIGUI-23","OBJECT_ID":"2025-086D","EPOCH":"2026-07-23T05:49:18.648480","CLASSIFICATION_TYPE":"U","MEAN_MOTION":13.24410751,"ECCENTRICITY":0.00022076,"INCLINATION":86.51,"RA_OF_ASC_NODE":301.1067,"ARG_OF_PERICENTER":109.6464,"MEAN_ANOMALY":250.4908,"EPHEMERIS_TYPE":0,"NORAD_CAT_ID":63690,"ELEMENT_SET_NO":999,"REV_AT_EPOCH":5963,"BSTAR":0.000039866657,"MEAN_MOTION_DOT":3.2e-7,"MEAN_MOTION_DDOT":0},{"OBJECT_NAME":"HULIANWANG DIGUI-24","OBJECT_ID":"2025-086E","EPOCH":"2026-07-23T06:00:14.154912","CLASSIFICATION_TYPE":"U","MEAN_MOTION":13.2441142,"ECCENTRICITY":0.00021931,"INCLINATION":86.5107,"RA_OF_ASC_NODE":301.14,"ARG_OF_PERICENTER":112.1549,"MEAN_ANOMALY":247.9818,"EPHEMERIS_TYPE":0,"NORAD_CAT_ID":63691,"ELEMENT_SET_NO":999,"REV_AT_EPOCH":5963,"BSTAR":0.000022605501,"MEAN_MOTION_DOT":2.4e-7,"MEAN_MOTION_DDOT":0},{"OBJECT_NAME":"HULIANWANG DIGUI-25","OBJECT_ID":"2025-086F","EPOCH":"2026-07-23T06:11:07.173888","CLASSIFICATION_TYPE":"U","MEAN_MOTION":13.24410823,"ECCENTRICITY":0.00021231,"INCLINATION":86.5045,"RA_OF_ASC_NODE":300.8766,"ARG_OF_PERICENTER":110.6167,"MEAN_ANOMALY":249.5195,"EPHEMERIS_TYPE":0,"NORAD_CAT_ID":63692,"ELEMENT_SET_NO":999,"REV_AT_EPOCH":5963,"BSTAR":0.000040953125,"MEAN_MOTION_DOT":3.2e-7,"MEAN_MOTION_DDOT":0},{"OBJECT_NAME":"HULIANWANG DIGUI-26","OBJECT_ID":"2025-086G","EPOCH":"2026-07-23T05:38:26.662848","CLASSIFICATION_TYPE":"U","MEAN_MOTION":13.24409812,"ECCENTRICITY":0.00023861,"INCLINATION":86.5094,"RA_OF_ASC_NODE":301.0763,"ARG_OF_PERICENTER":113.9623,"MEAN_ANOMALY":246.1761,"EPHEMERIS_TYPE":0,"NORAD_CAT_ID":63693,"ELEMENT_SET_NO":999,"REV_AT_EPOCH":5963,"BSTAR":0.000084775662,"MEAN_MOTION_DOT":5.1e-7,"MEAN_MOTION_DDOT":0},{"OBJECT_NAME":"HULIANWANG DIGUI-27","OBJECT_ID":"2025-086H","EPOCH":"2026-07-23T06:21:56.700576","CLASSIFICATION_TYPE":"U","MEAN_MOTION":13.24412589,"ECCENTRICITY":0.00021964,"INCLINATION":86.5054,"RA_OF_ASC_NODE":300.9213,"ARG_OF_PERICENTER":111.435,"MEAN_ANOMALY":248.7019,"EPHEMERIS_TYPE":0,"NORAD_CAT_ID":63694,"ELEMENT_SET_NO":999,"REV_AT_EPOCH":5963,"BSTAR":0.000038855814,"MEAN_MOTION_DOT":3.1e-7,"MEAN_MOTION_DDOT":0}]}
