HULIANWANG DIGUI-12     
1 62972U 25030B   26204.25470923 -.00000096  00000+0  60563-4 0  9991
2 62972  50.0023 106.5925 0000844 297.5806  62.4981 13.29322675 70657
HULIANWANG DIGUI-13     
1 62973U 25030C   26204.23789931 -.00000094  00000+0  64805-4 0  9993
2 62973  50.0026 106.5207 0000662 300.0286  60.0520 13.29324807 70656
HULIANWANG DIGUI-14     
1 62974U 25030D   26204.21288457 -.00000107  00000+0  36754-4 0  9996
2 62974  50.0031 106.4137 0000665 303.1272  56.9536 13.29327847 70654
HULIANWANG DIGUI-15     
1 62975U 25030E   26204.22957153 -.00000089  00000+0  74464-4 0  9993
2 62975  50.0027 106.4803 0000756 302.4260  57.6539 13.29324877 70651
HULIANWANG DIGUI-16     
1 62976U 25030F   26204.20462061 -.00000096  00000+0  59824-4 0  9992
2 62976  50.0049 106.4415 0000626 301.4297  58.6514 13.29325998 70659
HULIANWANG DIGUI-17     
1 62977U 25030G   26204.19616769 -.00000102  00000+0  47724-4 0  9991
2 62977  50.0061 106.4499 0000750 292.4214  67.6579 13.29326065 70659
HULIANWANG DIGUI-18     
1 62978U 25030H   26204.26296458 -.00000113  00000+0  23281-4 0  9993
2 62978  50.0066 106.1516 0000786 291.6108  68.4680 13.29327927 70665
HULIANWANG DIGUI-19     
1 62979U 25030J   26204.22137654 -.00000096  00000+0  59879-4 0  9994
2 62979  50.0051 106.5364 0000663 290.0157  70.0644 13.29319451 70657
HULIANWANG DIGUI-20     
1 63687U 25086A   26204.28792777  .00000059  00000+0  10379-3 0  9990
2 63687  86.5064 300.9752 0002192 109.9401 250.1970 13.24411950 59654
HULIANWANG DIGUI-21     
1 63688U 25086B   26204.29551950  .00000058  00000+0  10190-3 0  9998
2 63688  86.5092 301.0401 0002156 113.2742 246.8619 13.24410610 59648
HULIANWANG DIGUI-22     
1 63689U 25086C   26204.22749014  .00000046  00000+0  72234-4 0  9997
2 63689  86.5058 300.9189 0002227 109.0916 251.0460 13.24410922 59634
HULIANWANG DIGUI-23     
1 63690U 25086D   26204.24257695  .00000032  00000+0  39867-4 0  9990
2 63690  86.5100 301.1067 0002207 109.6464 250.4908 13.24410751 59634
HULIANWANG DIGUI-24     
1 63691U 25086E   26204.25016383  .00000024  00000+0  22606-4 0  9993
2 63691  86.5107 301.1400 0002193 112.1549 247.9818 13.24411420 59635
HULIANWANG DIGUI-25     
1 63692U 25086F   26204.25772192  .00000032  00000+0  40953-4 0  9995
2 63692  86.5045 300.8766 0002123 110.6167 249.5195 13.24410823 59632
HULIANWANG DIGUI-26     
1 63693U 25086G   26204.23503082  .00000051  00000+0  84776-4 0  9996
2 63693  86.5094 301.0763 0002386 113.9623 246.1761 13.24409812 59639
HULIANWANG DIGUI-27     
1 63694U 25086H   26204.26523959  .00000031  00000+0  38856-4 0  9991
2 63694  86.5054 300.9213 0002196 111.4350 248.7019 13.24412589 59632
